STARLINK-5109           
1 54002U 22125AQ  26068.66819291 -.00004119  00000+0 -24083-3 0  9993
2 54002  53.2175 203.9515 0001434  94.0784 266.0372 15.08845553189609
2023-069B               
1 56732U 23069B   26068.54706144  .00006772  00000+0  42420-3 0  9992
2 56732  41.0081 274.4606 0011652 279.7432  80.2064 15.09579619155167
